PHISAT 2                
1 60470U 24149C   26068.78834181  .00008925  00000+0  31421-3 0  9996
2 60470  97.3806 148.6498 0001175 168.6230 191.5037 15.29548631 86792
STARLINK-36054          
1 66812U 25278X   26068.52482990  .00028860  00000+0  10530-2 0  9992
2 66812  43.0022 115.3149 0001475 293.8382  66.2315 15.27616009 15187
